SENTINEL-6              
1 46984U 20086A   24169.85625904 -.00000026  00000+0  15260-3 0  9993
2 46984  66.0394 209.8805 0007933 270.2499  89.7607 12.80928888166912
